NORAD_CAT_ID,OBJECT_NAME,OBJECT_TYPE,EPOCH,MEAN_MOTION,ECCENTRICITY,INCLINATION,RA_OF_ASC_NODE,ARG_OF_PERICENTER,MEAN_ANOMALY,BSTAR,MEAN_MOTION_DOT,MEAN_MOTION_DDOT,TLE_LINE0,TLE_LINE1,TLE_LINE2,SEMIMAJOR_AXIS,PERIOD,APOGEE,PERIGEE,DECAYED
53588.0,STARLINK-4691,PAYLOAD,2024-02-16 14:46:00,15.08844165,0.0001384,53.2168,20.5638,95.7706,264.3444,0.00012336,1.676e-05,0.0,0 STARLINK-4691,1 53588U 22104A   24047.61528464  .00001676  00000-0  12336-3 0  9999,2 53588  53.2168  20.5638 0001384  95.7706 264.3444 15.08844165 82559,6917.868,95.437,540.69,538.775,0.0
53588.0,STARLINK-4691,PAYLOAD,2024-02-16 22:42:57,15.08835855,0.0001864,53.2207,19.0781,106.5763,253.5434,1.8586e-05,8e-08,0.0,0 STARLINK-4691,1 53588U 22104A   24047.94649371  .00000008  00000-0  18586-4 0  9998,2 53588  53.2207  19.0781 0001864 106.5763 253.5434 15.08835855 82603,6917.893,95.438,541.048,538.469,0.0
53588.0,STARLINK-4691,PAYLOAD,2024-02-17 03:29:06,15.08837367,0.0001625,53.2192,18.1842,100.6696,259.448,5.7331e-05,6.24e-06,0.0,0 STARLINK-4691,1 53588U 22104A   24048.14521029  .00000624  00000-0  57331-4 0  9995,2 53588  53.2192  18.1842 0001625 100.6696 259.4480 15.08837367 81468,6917.888,95.438,540.878,538.629,0.0
53588.0,STARLINK-4691,PAYLOAD,2024-02-17 05:04:29,15.08841201,0.000155,53.2189,17.8875,104.3284,255.788,0.00012529,1.707e-05,0.0,0 STARLINK-4691,1 53588U 22104A   24048.21144818  .00001707  00000-0  12529-3 0  9992,2 53588  53.2189  17.8875 0001550 104.3284 255.7880 15.08841201 82643,6917.877,95.437,540.814,538.669,0.0
53588.0,STARLINK-4691,PAYLOAD,2024-02-17 20:58:20,15.08839985,0.0001416,53.2176,14.9143,97.0958,263.0196,0.0001395,1.933e-05,0.0,0 STARLINK-4691,1 53588U 22104A   24048.87384970  .00001933  00000-0  13950-3 0  9999,2 53588  53.2176  14.9143 0001416  97.0958 263.0196 15.08839985 82741,6917.88,95.438,540.725,538.766,0.0
53588.0,STARLINK-4691,PAYLOAD,2024-02-18 06:30:39,15.08849495,0.0001431,53.2184,13.13,96.5154,263.6001,0.00017702,2.531e-05,0.0,0 STARLINK-4691,1 53588U 22104A   24049.27128517  .00002531  00000-0  17702-3 0  9991,2 53588  53.2184  13.1300 0001431  96.5154 263.6001 15.08849495 81630,6917.851,95.437,540.706,538.726,0.0
53588.0,STARLINK-4691,PAYLOAD,2024-02-18 14:27:34,15.08843136,0.0001619,53.2196,11.641,90.6433,269.4745,-1.1017e-05,-4.63e-06,0.0,0 STARLINK-4691,1 53588U 22104A   24049.60248827 -.00000463  00000-0 -11017-4 0  9993,2 53588  53.2196  11.6410 0001619  90.6433 269.4745 15.08843136 82851,6917.871,95.437,540.856,538.616,0.0
53588.0,STARLINK-4691,PAYLOAD,2024-02-18 20:49:07,15.08837062,0.0001695,53.2198,10.4518,88.068,272.0506,0.00017123,2.438e-05,0.0,0 STARLINK-4691,1 53588U 22104A   24049.86745258  .00002438  00000-0  17123-3 0  9996,2 53588  53.2198  10.4518 0001695  88.0680 272.0506 15.08837062 82898,6917.889,95.438,540.927,538.582,0.0
53588.0,STARLINK-4691,PAYLOAD,2024-02-19 14:18:22,15.08839522,0.0001634,53.2194,7.1823,80.2003,279.9174,5.3711e-05,5.67e-06,0.0,0 STARLINK-4691,1 53588U 22104A   24050.59609094  .00000567  00000-0  53711-4 0  9990,2 53588  53.2194   7.1823 0001634  80.2003 279.9174 15.08839522 83006,6917.882,95.438,540.877,538.616,0.0
53588.0,STARLINK-4691,PAYLOAD,2024-02-19 20:39:55,15.0883585,0.0001931,53.2176,5.9928,70.3091,289.811,-1.7894e-05,-5.73e-06,0.0,0 STARLINK-4691,1 53588U 22104A   24050.86105476 -.00000573  00000-0 -17894-4 0  9996,2 53588  53.2176   5.9928 0001931  70.3091 289.8110 15.08835850 81878,6917.893,95.438,541.094,538.422,0.0
53588.0,STARLINK-4691,PAYLOAD,2024-02-20 06:12:13,15.0884306,0.000141,53.2186,4.2065,90.569,269.5464,3.8192e-05,3.2e-06,0.0,0 STARLINK-4691,1 53588U 22104A   24051.25849271  .00000320  00000-0  38192-4 0  9990,2 53588  53.2186   4.2065 0001410  90.5690 269.5464 15.08843060 83101,6917.871,95.437,540.711,538.761,0.0
53588.0,STARLINK-4691,PAYLOAD,2024-02-21 02:52:14,15.08850963,0.0001601,53.2186,0.3415,90.0469,270.0707,0.00017104,2.436e-05,0.0,0 STARLINK-4691,1 53588U 22104A   24052.11960716  .00002436  00000-0  17104-3 0  9993,2 53588  53.2186   0.3415 0001601  90.0469 270.0707 15.08850963 82069,6917.847,95.437,540.819,538.604,0.0
53588.0,STARLINK-4691,PAYLOAD,2024-02-22 02:43:01,15.08837875,0.0001586,53.2199,355.8813,89.971,270.1464,5.9916e-05,6.66e-06,0.0,0 STARLINK-4691,1 53588U 22104A   24053.11321491  .00000666  00000-0  59916-4 0  9996,2 53588  53.2199 355.8813 0001586  89.9710 270.1464 15.08837875 82216,6917.887,95.438,540.849,538.655,0.0
53588.0,STARLINK-4691,PAYLOAD,2024-02-22 05:53:47,15.08842613,0.0001483,53.2192,355.2843,99.5847,260.5313,6.6048e-05,7.63e-06,0.0,0 STARLINK-4691,1 53588U 22104A   24053.24569082  .00000763  00000-0  66048-4 0  9992,2 53588  53.2192 355.2843 0001483  99.5847 260.5313 15.08842613 83404,6917.872,95.437,540.763,538.711,0.0
53588.0,STARLINK-4691,PAYLOAD,2024-02-23 00:58:25,15.08848615,0.000162,53.2202,351.7137,110.5269,249.5898,-3.7996e-05,-8.93e-06,0.0,0 STARLINK-4691,1 53588U 22104A   24054.04056833 -.00000893  00000-0 -37996-4 0  9992,2 53588  53.2202 351.7137 0001620 110.5269 249.5898 15.08848615 82354,6917.854,95.437,540.84,538.598,0.0
53588.0,STARLINK-4691,PAYLOAD,2024-02-23 05:44:35,15.08821663,0.0001899,53.2201,350.8214,115.1767,244.9422,0.00039523,6.005e-05,0.0,0 STARLINK-4691,1 53588U 22104A   24054.23929400  .00006005  00000-0  39523-3 0  9998,2 53588  53.2201 350.8214 0001899 115.1767 244.9422 15.08821663 82380,6917.936,95.439,541.115,538.488,0.0
53588.0,STARLINK-4691,PAYLOAD,2024-02-23 20:03:02,15.08839951,0.0001621,53.2198,348.1454,107.2717,252.8453,9.4675e-05,1.219e-05,0.0,0 STARLINK-4691,1 53588U 22104A   24054.83545009  .00001219  00000-0  94675-4 0  9995,2 53588  53.2198 348.1454 0001621 107.2717 252.8453 15.08839951 82472,6917.881,95.438,540.867,538.624,0.0
53588.0,STARLINK-4691,PAYLOAD,2024-02-24 11:56:54,15.08839228,0.000139,53.2186,345.1728,93.2926,266.8225,4.8584e-05,4.85e-06,0.0,0 STARLINK-4691,1 53588U 22104A   24055.49785276  .00000485  00000-0  48584-4 0  9992,2 53588  53.2186 345.1728 0001390  93.2926 266.8225 15.08839228 83749,6917.883,95.438,540.709,538.786,0.0
53588.0,STARLINK-4691,PAYLOAD,2024-02-25 11:47:41,15.0883946,0.0001814,53.2202,340.7136,85.9878,274.1322,4.2858e-05,3.94e-06,0.0,0 STARLINK-4691,1 53588U 22104A   24056.49145561  .00000394  00000-0  42858-4 0  9997,2 53588  53.2202 340.7136 0001814  85.9878 274.1322 15.08839460 82722,6917.882,95.438,541.002,538.492,0.0
53588.0,STARLINK-4691,PAYLOAD,2024-02-25 22:55:23,15.08839725,0.0001561,53.2195,338.6374,97.674,262.443,6.6799e-05,7.75e-06,0.0,0 STARLINK-4691,1 53588U 22104A   24056.95513545  .00000775  00000-0  66799-4 0  9992,2 53588  53.2195 338.6374 0001561  97.6740 262.4430 15.08839725 83961,6917.881,95.438,540.826,538.666,0.0
53588.0,STARLINK-4691,PAYLOAD,2024-02-26 03:41:32,15.08848875,0.0001401,53.2184,337.7412,84.1481,275.9671,0.00013568,1.873e-05,0.0,0 STARLINK-4691,1 53588U 22104A   24057.15384750  .00001873  00000-0  13568-3 0  9994,2 53588  53.2184 337.7412 0001401  84.1481 275.9671 15.08848875 82824,6917.853,95.437,540.687,538.749,0.0
53588.0,STARLINK-4691,PAYLOAD,2024-02-26 18:00:01,15.08838491,0.0002004,53.2193,335.0693,79.8631,280.2587,8.1821e-05,1.014e-05,0.0,0 STARLINK-4691,1 53588U 22104A   24057.75001878  .00001014  00000-0  81821-4 0  9992,2 53588  53.2193 335.0693 0002004  79.8631 280.2587 15.08838491 82912,6917.885,95.438,541.136,538.364,0.0
53588.0,STARLINK-4691,PAYLOAD,2024-02-26 22:46:11,15.08834216,0.0001459,53.2187,334.1771,76.9764,283.1391,4.0263e-05,3.53e-06,0.0,0 STARLINK-4691,1 53588U 22104A   24057.94874202  .00000353  00000-0  40263-4 0  9992,2 53588  53.2187 334.1771 0001459  76.9764 283.1391 15.08834216 84110,6917.898,95.438,540.772,538.754,0.0
53588.0,STARLINK-4691,PAYLOAD,2024-02-27 11:29:16,15.0883352,0.0001323,53.2187,331.7971,84.589,275.5254,0.00012426,1.69e-05,0.0,0 STARLINK-4691,1 53588U 22104A   24058.47866068  .00001690  00000-0  12426-3 0  9996,2 53588  53.2187 331.7971 0001323  84.5890 275.5254 15.08833520 84198,6917.9,95.438,540.68,538.85,0.0
53588.0,STARLINK-4691,PAYLOAD,2024-02-27 17:50:49,15.08827873,0.0001336,53.2186,330.6073,86.6379,273.4766,8.6658e-05,1.091e-05,0.0,0 STARLINK-4691,1 53588U 22104A   24058.74362665  .00001091  00000-0  86658-4 0  9994,2 53588  53.2186 330.6073 0001336  86.6379 273.4766 15.08827873 83061,6917.917,95.438,540.707,538.858,0.0
53588.0,STARLINK-4691,PAYLOAD,2024-02-27 22:36:58,15.08834763,0.0001509,53.2185,329.7165,83.6834,276.433,4.4004e-05,4.12e-06,0.0,0 STARLINK-4691,1 53588U 22104A   24058.94234449  .00000412  00000-0  44004-4 0  9999,2 53588  53.2185 329.7165 0001509  83.6834 276.4330 15.08834763 84265,6917.896,95.438,540.805,538.717,0.0
53588.0,STARLINK-4691,PAYLOAD,2024-02-28 03:23:07,15.08846413,0.0001321,53.2181,328.8203,101.1259,258.9882,4.0265e-05,3.53e-06,0.0,0 STARLINK-4691,1 53588U 22104A   24059.14105649  .00000353  00000-0  40265-4 0  9990,2 53588  53.2181 328.8203 0001321 101.1259 258.9882 15.08846413 83129,6917.861,95.437,540.64,538.812,0.0
53588.0,STARLINK-4691,PAYLOAD,2024-02-28 11:20:03,15.08839922,0.0001268,53.2175,327.3362,94.4411,265.6726,-2.5421e-05,-6.92e-06,0.0,0 STARLINK-4691,1 53588U 22104A   24059.47226264 -.00000692  00000-0 -25421-4 0  9998,2 53588  53.2175 327.3362 0001268  94.4411 265.6726 15.08839922 83170,6917.881,95.438,540.623,538.868,0.0
53588.0,STARLINK-4691,PAYLOAD,2024-02-28 22:27:45,15.08837673,0.0001516,53.219,325.2535,81.5313,278.5851,3.8537e-05,3.25e-06,0.0,0 STARLINK-4691,1 53588U 22104A   24059.93594455  .00000325  00000-0  38537-4 0  9992,2 53588  53.2190 325.2535 0001516  81.5313 278.5851 15.08837673 84411,6917.888,95.438,540.801,538.704,0.0
53588.0,STARLINK-4691,PAYLOAD,2024-02-29 11:10:50,15.08843803,0.0001522,53.219,322.8728,83.4804,276.6361,7.6385e-05,9.28e-06,0.0,0 STARLINK-4691,1 53588U 22104A   24060.46585971  .00000928  00000-0  76385-4 0  9997,2 53588  53.2190 322.8728 0001522  83.4804 276.6361 15.08843803 84496,6917.869,95.437,540.787,538.681,0.0
